[{"OBJECT_NAME":"TELEOS-2","OBJECT_ID":"2023-057C","EPOCH":"2026-03-08T15:30:11.035584","MEAN_MOTION":14.96380118,"ECCENTRICITY":8.033e-5,"INCLINATION":9.9874,"RA_OF_ASC_NODE":216.2411,"ARG_OF_PERICENTER":295.2771,"MEAN_ANOMALY":64.7359,"EPHEMERIS_TYPE":0,"CLASSIFICATION_TYPE":"U","NORAD_CAT_ID":56310,"ELEMENT_SET_NO":999,"REV_AT_EPOCH":15771,"BSTAR":1.5043378e-5,"MEAN_MOTION_DOT":8.63e-6,"MEAN_MOTION_DDOT":0},{"OBJECT_NAME":"STARLINK-5530","OBJECT_ID":"2023-064AY","EPOCH":"2026-03-09T11:49:21.916128","MEAN_MOTION":14.98614426,"ECCENTRICITY":0.00029708,"INCLINATION":69.9976,"RA_OF_ASC_NODE":104.9316,"ARG_OF_PERICENTER":70.895,"MEAN_ANOMALY":289.2531,"EPHEMERIS_TYPE":0,"CLASSIFICATION_TYPE":"U","NORAD_CAT_ID":56494,"ELEMENT_SET_NO":999,"REV_AT_EPOCH":15619,"BSTAR":0.0020351993,"MEAN_MOTION_DOT":0.00024455,"MEAN_MOTION_DDOT":0}]
